ORBCOMM FM115           
1 41186U 15081H   25187.51993962  .00000435  00000+0  11927-3 0  9996
2 41186  46.9997 307.6092 0001043 203.6010 156.4829 14.62527014510602
ORBCOMM FM108           
1 41187U 15081J   25186.87625208  .00000544  00000+0  15342-3 0  9996
2 41187  47.0063  18.7103 0002136  34.0759 326.0263 14.58172793509523
ORBCOMM FM117           
1 41188U 15081K   25186.84251004  .00000525  00000+0  14937-3 0  9991
2 41188  47.0024  17.6256 0002682  46.9125 313.1985 14.58177228509619
ORBCOMM FM116           
1 41189U 15081L   25187.24181734  .00000546  00000+0  15360-3 0  9993
2 41189  47.0023 105.5831 0002430 259.7074 100.3538 14.58236910508504
